HAWK-11A                
1 62382U 24247F   26068.51231358  .00009457  00000+0  34106-3 0  9991
2 62382  44.9941 114.3328 0005466 327.3713  32.6832 15.28849427 67741
STARLINK-33828          
1 63493U 25071A   26068.52024714  .00025076  00000+0  85536-3 0  9996
2 63493  53.1595 142.8760 0001250  86.3008 273.8135 15.30221360 52690
