[{"OBJECT_NAME":"HAWK-11A","OBJECT_ID":"2024-247F","EPOCH":"2026-03-09T12:17:43.893312","MEAN_MOTION":15.28849427,"ECCENTRICITY":0.00054663,"INCLINATION":44.9941,"RA_OF_ASC_NODE":114.3328,"ARG_OF_PERICENTER":327.3713,"MEAN_ANOMALY":32.6832,"EPHEMERIS_TYPE":0,"CLASSIFICATION_TYPE":"U","NORAD_CAT_ID":62382,"ELEMENT_SET_NO":999,"REV_AT_EPOCH":6774,"BSTAR":0.00034106017,"MEAN_MOTION_DOT":9.457e-5,"MEAN_MOTION_DDOT":0},{"OBJECT_NAME":"STARLINK-33828","OBJECT_ID":"2025-071A","EPOCH":"2026-03-09T12:29:09.352896","MEAN_MOTION":15.3022136,"ECCENTRICITY":0.00012504,"INCLINATION":53.1595,"RA_OF_ASC_NODE":142.876,"ARG_OF_PERICENTER":86.3008,"MEAN_ANOMALY":273.8135,"EPHEMERIS_TYPE":0,"CLASSIFICATION_TYPE":"U","NORAD_CAT_ID":63493,"ELEMENT_SET_NO":999,"REV_AT_EPOCH":5269,"BSTAR":0.00085536135,"MEAN_MOTION_DOT":0.00025076,"MEAN_MOTION_DDOT":0}]
